LEMUR-2-STARLIGHT       
1 66783U 25276DY  26095.19296820  .00010920  00000+0  91991-3 0  9994
2 66783  97.5280 168.3506 0014340  21.7642 338.4187 14.98290686 19261
LEMUR-2-TARTIFLETTE     
1 66784U 25276DZ  26095.18759168  .00008103  00000+0  68643-3 0  9991
2 66784  97.5287 168.3592 0013555  28.5655 331.6308 14.98167795 19264
LEMUR-2-VUKASIN         
1 66785U 25276EA  26095.17842807  .00008940  00000+0  73235-3 0  9996
2 66785  97.5282 168.5054 0008752  25.2681 334.8969 14.99475613 19205
LEMUR-2-HOTSPUR-TOM     
1 66786U 25276EB  26095.17726956  .00007820  00000+0  66246-3 0  9993
2 66786  97.5277 168.3512 0014542  24.2768 335.9137 14.98166762 19194
LEMUR-2-MYRA            
1 66787U 25276EC  26095.20582148  .00011030  00000+0  90261-3 0  9993
2 66787  97.5277 168.4815 0012245  35.1699 325.0330 14.99431758 19279
LEMUR-2 FIKRETDENGIZ    
1 67363U 26004A   26094.97311940  .00006684  00000+0  73769-3 0  9990
2 67363  97.8025  94.6902 0009663  31.5135 328.6659 14.87752522 12397
LEMUR-2-CALLUM-K-J      
1 67364U 26004B   26095.24358729  .00003609  00000+0  40419-3 0  9998
2 67364  97.8060  94.9863 0009084  20.0478 340.1094 14.87452855 12440
LEMUR-2-MARIO-SOUSA     
1 67365U 26004C   26095.23392691  .00006637  00000+0  72962-3 0  9996
2 67365  97.8003  94.9457 0009208  32.5258 327.6524 14.87916143 12442
LEMUR-2-SONNENBLUME     
1 67367U 26004E   26094.55559453  .00006364  00000+0  69961-3 0  9995
2 67367  97.7993  94.2802 0009023  36.1472 324.0353 14.87934727 12349
LEMUR-2-WOBLER          
1 67368U 26004F   26095.22742018  .00006423  00000+0  70538-3 0  9990
2 67368  97.8055  94.9974 0008789  24.7593 335.4044 14.87977738 12445
LEMUR-2-GRAM-E-SUE      
1 67370U 26004H   26094.54795777  .00006052  00000+0  66342-3 0  9993
2 67370  97.7982  94.2805 0008216  39.9566 320.2254 14.88075749 12341
LEMUR-2-KATIE           
1 67387U 26004AA  26095.28126454  .00008308  00000+0  87683-3 0  9990
2 67387  97.8052  95.2325 0002768  11.9174 348.2109 14.89524089 12455
LEMUR-2-HCS-BAZUS       
1 67388U 26004AB  26094.94149420  .00003148  00000+0  33668-3 0  9992
2 67388  97.8035  94.8956 0002197  12.4847 347.6424 14.89456538 12402
