[{"OBJECT_NAME":"LEMUR-2-STARLIGHT","OBJECT_ID":"2025-276DY","EPOCH":"2026-04-05T04:37:52.452480","MEAN_MOTION":14.98290686,"ECCENTRICITY":0.00143403,"INCLINATION":97.528,"RA_OF_ASC_NODE":168.3506,"ARG_OF_PERICENTER":21.7642,"MEAN_ANOMALY":338.4187,"EPHEMERIS_TYPE":0,"CLASSIFICATION_TYPE":"U","NORAD_CAT_ID":66783,"ELEMENT_SET_NO":999,"REV_AT_EPOCH":1926,"BSTAR":0.0009199149,"MEAN_MOTION_DOT":0.0001092,"MEAN_MOTION_DDOT":0},{"OBJECT_NAME":"LEMUR-2-TARTIFLETTE","OBJECT_ID":"2025-276DZ","EPOCH":"2026-04-05T04:30:07.921152","MEAN_MOTION":14.98167795,"ECCENTRICITY":0.0013555,"INCLINATION":97.5287,"RA_OF_ASC_NODE":168.3592,"ARG_OF_PERICENTER":28.5655,"MEAN_ANOMALY":331.6308,"EPHEMERIS_TYPE":0,"CLASSIFICATION_TYPE":"U","NORAD_CAT_ID":66784,"ELEMENT_SET_NO":999,"REV_AT_EPOCH":1926,"BSTAR":0.00068643408,"MEAN_MOTION_DOT":8.103e-5,"MEAN_MOTION_DDOT":0},{"OBJECT_NAME":"LEMUR-2-VUKASIN","OBJECT_ID":"2025-276EA","EPOCH":"2026-04-05T04:16:56.185248","MEAN_MOTION":14.99475613,"ECCENTRICITY":0.00087522,"INCLINATION":97.5282,"RA_OF_ASC_NODE":168.5054,"ARG_OF_PERICENTER":25.2681,"MEAN_ANOMALY":334.8969,"EPHEMERIS_TYPE":0,"CLASSIFICATION_TYPE":"U","NORAD_CAT_ID":66785,"ELEMENT_SET_NO":999,"REV_AT_EPOCH":1920,"BSTAR":0.00073234616,"MEAN_MOTION_DOT":8.94e-5,"MEAN_MOTION_DDOT":0},{"OBJECT_NAME":"LEMUR-2-HOTSPUR-TOM","OBJECT_ID":"2025-276EB","EPOCH":"2026-04-05T04:15:16.089984","MEAN_MOTION":14.98166762,"ECCENTRICITY":0.0014542,"INCLINATION":97.5277,"RA_OF_ASC_NODE":168.3512,"ARG_OF_PERICENTER":24.2768,"MEAN_ANOMALY":335.9137,"EPHEMERIS_TYPE":0,"CLASSIFICATION_TYPE":"U","NORAD_CAT_ID":66786,"ELEMENT_SET_NO":999,"REV_AT_EPOCH":1919,"BSTAR":0.00066245945,"MEAN_MOTION_DOT":7.82e-5,"MEAN_MOTION_DDOT":0},{"OBJECT_NAME":"LEMUR-2-MYRA","OBJECT_ID":"2025-276EC","EPOCH":"2026-04-05T04:56:22.975872","MEAN_MOTION":14.99431758,"ECCENTRICITY":0.00122456,"INCLINATION":97.5277,"RA_OF_ASC_NODE":168.4815,"ARG_OF_PERICENTER":35.1699,"MEAN_ANOMALY":325.033,"EPHEMERIS_TYPE":0,"CLASSIFICATION_TYPE":"U","NORAD_CAT_ID":66787,"ELEMENT_SET_NO":999,"REV_AT_EPOCH":1927,"BSTAR":0.00090260938,"MEAN_MOTION_DOT":0.0001103,"MEAN_MOTION_DDOT":0},{"OBJECT_NAME":"LEMUR-2 FIKRETDENGIZ","OBJECT_ID":"2026-004A","EPOCH":"2026-04-04T23:21:17.516160","MEAN_MOTION":14.87752522,"ECCENTRICITY":0.0009663,"INCLINATION":97.8025,"RA_OF_ASC_NODE":94.6902,"ARG_OF_PERICENTER":31.5135,"MEAN_ANOMALY":328.6659,"EPHEMERIS_TYPE":0,"CLASSIFICATION_TYPE":"U","NORAD_CAT_ID":67363,"ELEMENT_SET_NO":999,"REV_AT_EPOCH":1239,"BSTAR":0.00073768739,"MEAN_MOTION_DOT":6.684e-5,"MEAN_MOTION_DDOT":0},{"OBJECT_NAME":"LEMUR-2-CALLUM-K-J","OBJECT_ID":"2026-004B","EPOCH":"2026-04-05T05:50:45.941856","MEAN_MOTION":14.87452855,"ECCENTRICITY":0.00090847,"INCLINATION":97.806,"RA_OF_ASC_NODE":94.9863,"ARG_OF_PERICENTER":20.0478,"MEAN_ANOMALY":340.1094,"EPHEMERIS_TYPE":0,"CLASSIFICATION_TYPE":"U","NORAD_CAT_ID":67364,"ELEMENT_SET_NO":999,"REV_AT_EPOCH":1244,"BSTAR":0.0004041899,"MEAN_MOTION_DOT":3.609e-5,"MEAN_MOTION_DDOT":0},{"OBJECT_NAME":"LEMUR-2-MARIO-SOUSA","OBJECT_ID":"2026-004C","EPOCH":"2026-04-05T05:36:51.285024","MEAN_MOTION":14.87916143,"ECCENTRICITY":0.00092089,"INCLINATION":97.8003,"RA_OF_ASC_NODE":94.9457,"ARG_OF_PERICENTER":32.5258,"MEAN_ANOMALY":327.6524,"EPHEMERIS_TYPE":0,"CLASSIFICATION_TYPE":"U","NORAD_CAT_ID":67365,"ELEMENT_SET_NO":999,"REV_AT_EPOCH":1244,"BSTAR":0.00072962126,"MEAN_MOTION_DOT":6.637e-5,"MEAN_MOTION_DDOT":0},{"OBJECT_NAME":"LEMUR-2-SONNENBLUME","OBJECT_ID":"2026-004E","EPOCH":"2026-04-04T13:20:03.367392","MEAN_MOTION":14.87934727,"ECCENTRICITY":0.0009023,"INCLINATION":97.7993,"RA_OF_ASC_NODE":94.2802,"ARG_OF_PERICENTER":36.1472,"MEAN_ANOMALY":324.0353,"EPHEMERIS_TYPE":0,"CLASSIFICATION_TYPE":"U","NORAD_CAT_ID":67367,"ELEMENT_SET_NO":999,"REV_AT_EPOCH":1234,"BSTAR":0.00069961,"MEAN_MOTION_DOT":6.364e-5,"MEAN_MOTION_DDOT":0},{"OBJECT_NAME":"LEMUR-2-WOBLER","OBJECT_ID":"2026-004F","EPOCH":"2026-04-05T05:27:29.103552","MEAN_MOTION":14.87977738,"ECCENTRICITY":0.0008789,"INCLINATION":97.8055,"RA_OF_ASC_NODE":94.9974,"ARG_OF_PERICENTER":24.7593,"MEAN_ANOMALY":335.4044,"EPHEMERIS_TYPE":0,"CLASSIFICATION_TYPE":"U","NORAD_CAT_ID":67368,"ELEMENT_SET_NO":999,"REV_AT_EPOCH":1244,"BSTAR":0.00070537532,"MEAN_MOTION_DOT":6.423e-5,"MEAN_MOTION_DDOT":0},{"OBJECT_NAME":"LEMUR-2-GRAM-E-SUE","OBJECT_ID":"2026-004H","EPOCH":"2026-04-04T13:09:03.551328","MEAN_MOTION":14.88075749,"ECCENTRICITY":0.0008216,"INCLINATION":97.7982,"RA_OF_ASC_NODE":94.2805,"ARG_OF_PERICENTER":39.9566,"MEAN_ANOMALY":320.2254,"EPHEMERIS_TYPE":0,"CLASSIFICATION_TYPE":"U","NORAD_CAT_ID":67370,"ELEMENT_SET_NO":999,"REV_AT_EPOCH":1234,"BSTAR":0.00066342,"MEAN_MOTION_DOT":6.052e-5,"MEAN_MOTION_DDOT":0},{"OBJECT_NAME":"LEMUR-2-KATIE","OBJECT_ID":"2026-004AA","EPOCH":"2026-04-05T06:45:01.256256","MEAN_MOTION":14.89524089,"ECCENTRICITY":0.0002768,"INCLINATION":97.8052,"RA_OF_ASC_NODE":95.2325,"ARG_OF_PERICENTER":11.9174,"MEAN_ANOMALY":348.2109,"EPHEMERIS_TYPE":0,"CLASSIFICATION_TYPE":"U","NORAD_CAT_ID":67387,"ELEMENT_SET_NO":999,"REV_AT_EPOCH":1245,"BSTAR":0.00087682551,"MEAN_MOTION_DOT":8.308e-5,"MEAN_MOTION_DDOT":0},{"OBJECT_NAME":"LEMUR-2-HCS-BAZUS","OBJECT_ID":"2026-004AB","EPOCH":"2026-04-04T22:35:45.098880","MEAN_MOTION":14.89456538,"ECCENTRICITY":0.00021977,"INCLINATION":97.8035,"RA_OF_ASC_NODE":94.8956,"ARG_OF_PERICENTER":12.4847,"MEAN_ANOMALY":347.6424,"EPHEMERIS_TYPE":0,"CLASSIFICATION_TYPE":"U","NORAD_CAT_ID":67388,"ELEMENT_SET_NO":999,"REV_AT_EPOCH":1240,"BSTAR":0.00033667972,"MEAN_MOTION_DOT":3.148e-5,"MEAN_MOTION_DDOT":0}]
